[{"OBJECT_NAME":"STARLINK-34787","OBJECT_ID":"2025-176G","EPOCH":"2026-03-09T22:43:31.092096","MEAN_MOTION":15.30200787,"ECCENTRICITY":0.00013805,"INCLINATION":53.1606,"RA_OF_ASC_NODE":151.2612,"ARG_OF_PERICENTER":89.6011,"MEAN_ANOMALY":270.5147,"EPHEMERIS_TYPE":0,"CLASSIFICATION_TYPE":"U","NORAD_CAT_ID":65204,"ELEMENT_SET_NO":999,"REV_AT_EPOCH":3316,"BSTAR":0.00096241233,"MEAN_MOTION_DOT":0.00028254,"MEAN_MOTION_DDOT":0},{"OBJECT_NAME":"ELEKTRON 3","OBJECT_ID":"1964-038A","EPOCH":"2026-03-09T21:23:02.230656","MEAN_MOTION":9.21091579,"ECCENTRICITY":0.29393663,"INCLINATION":60.8253,"RA_OF_ASC_NODE":338.4207,"ARG_OF_PERICENTER":322.4187,"MEAN_ANOMALY":20.307,"EPHEMERIS_TYPE":0,"CLASSIFICATION_TYPE":"U","NORAD_CAT_ID":829,"ELEMENT_SET_NO":999,"REV_AT_EPOCH":630,"BSTAR":0.00049978056,"MEAN_MOTION_DOT":1.8e-5,"MEAN_MOTION_DDOT":0}]
